$$SOE
2459580.500000000, A.D. 2022-Jan-01 00:00:00.0000, -3.478008759636592E+08, 2.186983750019446E+08, -8.960166129821286E+06,
2459587.500000000, A.D. 2022-Jan-08 00:00:00.0000, -3.518222645222413E+08, 2.102567355332190E+08, -7.636001379108682E+06,
2459594.500000000, A.D. 2022-Jan-15 00:00:00.0000, -3.555957695055364E+08, 2.016669377457759E+08, -6.306455504611179E+06,
2459601.500000000, A.D. 2022-Jan-22 00:00:00.0000, -3.591167290574449E+08, 1.929339011210992E+08, -4.972430497277841E+06,
2459608.500000000, A.D. 2022-Jan-29 00:00:00.0000, -3.623804594583552E+08, 1.840626609067898E+08, -3.634844184331059E+06,
2459615.500000000, A.D. 2022-Feb-05 00:00:00.0000, -3.653822559574147E+08, 1.750583756926829E+08, -2.294631234249562E+06,
2459622.500000000, A.D. 2022-Feb-12 00:00:00.0000, -3.681173917039484E+08, 1.659263343564465E+08, -9.527444871109724E+05,
2459629.500000000, A.D. 2022-Feb-19 00:00:00.0000, -3.705811161197307E+08, 1.566719647671484E+08, 3.898437037207335E+05,
2459636.500000000, A.D. 2022-Feb-26 00:00:00.0000, -3.727686540502747E+08, 1.473008435446216E+08, 1.732140177723140E+06,
2459643.500000000, A.D. 2022-Mar-05 00:00:00.0000, -3.746752055686088E+08, 1.378187062822206E+08, 3.073129653785691E+06,
2459650.500000000, A.D. 2022-Mar-12 00:00:00.0000, -3.762959462469295E+08, 1.282314581939196E+08, 4.411773369196370E+06,
2459657.500000000, A.D. 2022-Mar-19 00:00:00.0000, -3.776260278670440E+08, 1.185451852424506E+08, 5.747007664641298E+06,
2459664.500000000, A.D. 2022-Mar-26 00:00:00.0000, -3.786605795938010E+08, 1.087661657726174E+08, 7.077742510837890E+06,
2459671.500000000, A.D. 2022-Apr-02 00:00:00.0000, -3.793947095954282E+08, 9.890088262476085E+07, 8.402859964636326E+06,
2459678.500000000, A.D. 2022-Apr-09 00:00:00.0000, -3.798235068961847E+08, 8.895603576452014E+07, 9.721212529140577E+06,
2459685.500000000, A.D. 2022-Apr-16 00:00:00.0000, -3.799420431677158E+08, 7.893855611439620E+07, 1.103162143813043E+07,
2459692.500000000, A.D. 2022-Apr-23 00:00:00.0000, -3.797453757987379E+08, 6.885562170192675E+07, 1.233287506979664E+07,
2459699.500000000, A.D. 2022-Apr-30 00:00:00.0000, -3.792285541944827E+08, 5.871467390902364E+07, 1.362372747830110E+07,
2459706.500000000, A.D. 2022-May-07 00:00:00.0000, -3.783866263340576E+08, 4.852343188006751E+07, 1.490289660226151E+07,
2459713.500000000, A.D. 2022-May-14 00:00:00.0000, -3.772146442912002E+08, 3.828990815627630E+07, 1.616906227337850E+07,
2459720.500000000, A.D. 2022-May-21 00:00:00.0000, -3.757076708545426E+08, 2.802242631728482E+07, 1.742086427648766E+07,
2459727.500000000, A.D. 2022-May-28 00:00:00.0000, -3.738607878490727E+08, 1.772963968953289E+07, 1.865690043043791E+07,
2459734.500000000, A.D. 2022-Jun-04 00:00:00.0000, -3.716691060189397E+08, 7.420550825197566E+06, 1.987572464424051E+07,
2459741.500000000, A.D. 2022-Jun-11 00:00:00.0000, -3.691277764764991E+08, -2.895468235046515E+06, 2.107584494260246E+07,
2459748.500000000, A.D. 2022-Jun-18 00:00:00.0000, -3.662320038432294E+08, -1.320865489948799E+07, 2.225572146745438E+07,
2459755.500000000, A.D. 2022-Jun-25 00:00:00.0000, -3.629770612345021E+08, -2.350883420363407E+07, 2.341376446132534E+07,
2459762.500000000, A.D. 2022-Jul-02 00:00:00.0000, -3.593583071540026E+08, -3.378539631442761E+07, 2.454833222876801E+07,
2459769.500000000, A.D. 2022-Jul-09 00:00:00.0000, -3.553712041266305E+08, -4.402727321755884E+07, 2.565772907141534E+07,
2459776.500000000, A.D. 2022-Jul-16 00:00:00.0000, -3.510113393639624E+08, -5.422291355734653E+07, 2.674020331059589E+07,
2459783.500000000, A.D. 2022-Jul-23 00:00:00.0000, -3.462744499210562E+08, -6.436025562688689E+07, 2.779394562981549E+07,
2459790.500000000, A.D. 2022-Jul-30 00:00:00.0000, -3.411564525469405E+08, -7.442670196552673E+07, 2.881708748451773E+07,
2459797.500000000, A.D. 2022-Aug-06 00:00:00.0000, -3.356534749416800E+08, -8.440909504768877E+07, 2.980769933722194E+07,
2459804.500000000, A.D. 2022-Aug-13 00:00:00.0000, -3.297618895723516E+08, -9.429369147522458E+07, 3.076378905994284E+07,
2459811.500000000, A.D. 2022-Aug-20 00:00:00.0000, -3.234783519649218E+08, -1.040661353904988E+08, 3.168330065417563E+07,
2459818.500000000, A.D. 2022-Aug-27 00:00:00.0000, -3.167998437768446E+08, -1.137114321066356E+08, 3.256411327815061E+07,
2459825.500000000, A.D. 2022-Sep-03 00:00:00.0000, -3.097237207988530E+08, -1.232139223953796E+08, 3.340404061454438E+07,
2459832.500000000, A.D. 2022-Sep-10 00:00:00.0000, -3.022477662072242E+08, -1.325572578071460E+08, 3.420083064761886E+07,
2459839.500000000, A.D. 2022-Sep-17 00:00:00.0000, -2.943702494569724E+08, -1.417243775050842E+08, 3.495216593320067E+07,
2459846.500000000, A.D. 2022-Sep-24 00:00:00.0000, -2.860899911781138E+08, -1.506974872387289E+08, 3.565566445024732E+07,
2459853.500000000, A.D. 2022-Oct-01 00:00:00.0000, -2.774064342516195E+08, -1.594580411614813E+08, 3.630888112217250E+07,
2459860.500000000, A.D. 2022-Oct-08 00:00:00.0000, -2.683197210558086E+08, -1.679867267718124E+08, 3.690931014003602E+07,
2459867.500000000, A.D. 2022-Oct-15 00:00:00.0000, -2.588307781773631E+08, -1.762634527135553E+08, 3.745438841345993E+07,
2459874.500000000, A.D. 2022-Oct-22 00:00:00.0000, -2.489414110742409E+08, -1.842673421995631E+08, 3.794150037015149E+07,
2459881.500000000, A.D. 2022-Oct-29 00:00:00.0000, -2.386544064174632E+08, -1.919767358901322E+08, 3.836798383762187E+07,
2459888.500000000, A.D. 2022-Nov-05 00:00:00.0000, -2.279736401191323E+08, -1.993692028863623E+08, 3.873113722773875E+07,
2459895.500000000, A.D. 2022-Nov-12 00:00:00.0000, -2.169041929523253E+08, -2.064215601458285E+08, 3.902822850820427E+07,
2459902.500000000, A.D. 2022-Nov-19 00:00:00.0000, -2.054524742157296E+08, -2.131099030379617E+08, 3.925650615938890E+07,
2459909.500000000, A.D. 2022-Nov-26 00:00:00.0000, -1.936263526694841E+08, -2.194096493916359E+08, 3.941321228153206E+07,
2459916.500000000, A.D. 2022-Dec-03 00:00:00.0000, -1.814352937716787E+08, -2.252955991716001E+08, 3.949559806687464E+07,
2459923.500000000, A.D. 2022-Dec-10 00:00:00.0000, -1.688905020007251E+08, -2.307420120181817E+08, 3.950094186469602E+07,
2459930.500000000, A.D. 2022-Dec-17 00:00:00.0000, -1.560050666201847E+08, -2.357227050095513E+08, 3.942657005130889E+07,
2459937.500000000, A.D. 2022-Dec-24 00:00:00.0000, -1.427941086303864E+08, -2.402111730726872E+08, 3.926988087801300E+07,
2459944.500000000, A.D. 2022-Dec-31 00:00:00.0000, -1.292749258079914E+08, -2.441807342424568E+08, 3.902837141969546E+07,
2459951.500000000, A.D. 2023-Jan-07 00:00:00.0000, -1.154671323154425E+08, -2.476047009484534E+08, 3.869966777953447E+07,
2459958.500000000, A.D. 2023-Jan-14 00:00:00.0000, -1.013927907497801E+08, -2.504565786661217E+08, 3.828155877895869E+07,
2459965.500000000, A.D. 2023-Jan-21 00:00:00.0000, -8.707653245043652E+07, -2.527102964596497E+08, 3.777203283727743E+07,
2459972.500000000, A.D. 2023-Jan-28 00:00:00.0000, -7.254565685955742E+07, -2.543404702937339E+08, 3.716931746616843E+07,
2459979.500000000, A.D. 2023-Feb-04 00:00:00.0000, -5.783020395155725E+07, -2.553226958660896E+08, 3.647192127035967E+07,
2459986.500000000, A.D. 2023-Feb-11 00:00:00.0000, -4.296299479706140E+07, -2.556338697875962E+08, 3.567867804903039E+07,
2459993.500000000, A.D. 2023-Feb-18 00:00:00.0000, -2.797963324747257E+07, -2.552525371818858E+08, 3.478879218242074E+07,
2460000.500000000, A.D. 2023-Feb-25 00:00:00.0000, -1.291846132770666E+07, -2.541592615088317E+08, 3.380188429845530E+07,
2460007.500000000, A.D. 2023-Mar-04 00:00:00.0000, 2.179538631729700E+06, -2.523370104536771E+08, 3.271803602573585E+07,
2460014.500000000, A.D. 2023-Mar-11 00:00:00.0000, 1.727090129830323E+07, -2.497715498672745E+08, 3.153783244067179E+07,
2460021.500000000, A.D. 2023-Mar-18 00:00:00.0000, 3.230990003672745E+07, -2.464518359347436E+08, 3.026240064091846E+07,
2460028.500000000, A.D. 2023-Mar-25 00:00:00.0000, 4.724883633333327E+07, -2.423703940345433E+08, 2.889344274218016E+07,
2460035.500000000, A.D. 2023-Apr-01 00:00:00.0000, 6.203839816583869E+07, -2.375236709060339E+08, 2.743326155804837E+07,
2460042.500000000, A.D. 2023-Apr-08 00:00:00.0000, 7.662808468004011E+07, -2.319123450041564E+08, 2.588477742430082E+07,
2460049.500000000, A.D. 2023-Apr-15 00:00:00.0000, 9.096668961834389E+07, -2.255415820106737E+08, 2.425153474325502E+07,
2460056.500000000, A.D. 2023-Apr-22 00:00:00.0000, 1.050028367034094E+08, -2.184212249936663E+08, 2.253769654926138E+07,
2460063.500000000, A.D. 2023-Apr-29 00:00:00.0000, 1.186855577605463E+08, -2.105659048985795E+08, 2.074802612900511E+07,
2460070.500000000, A.D. 2023-May-06 00:00:00.0000, 1.319648968336624E+08, -2.019950599485114E+08, 1.888785559028222E+07,
2460077.500000000, A.D. 2023-May-13 00:00:00.0000, 1.447925219030019E+08, -1.927328584754722E+08, 1.696304154363783E+07,
2460084.500000000, A.D. 2023-May-20 00:00:00.0000, 1.571223254643215E+08, -1.828080232552794E+08, 1.497990858472313E+07,
2460091.500000000, A.D. 2023-May-27 00:00:00.0000, 1.689109947021224E+08, -1.722535593362730E+08, 1.294518190405619E+07,
2460098.500000000, A.D. 2023-Jun-03 00:00:00.0000, 1.801185325505784E+08, -1.611063917742535E+08, 1.086591091147407E+07,
2460105.500000000, A.D. 2023-Jun-10 00:00:00.0000, 1.907087127764786E+08, -1.494069239422655E+08, 8.749386204456359E+06,
2460112.500000000, A.D. 2023-Jun-17 00:00:00.0000, 2.006494552149253E+08, -1.371985307329625E+08, 6.603052501933418E+06,
2460119.500000000, A.D. 2023-Jun-24 00:00:00.0000, 2.099131112955649E+08, -1.245270035614641E+08, 4.434420297102131E+06,
2460126.500000000, A.D. 2023-Jul-01 00:00:00.0000, 2.184766542386511E+08, -1.114399649435823E+08, 2.250979029797420E+06,
2460133.500000000, A.D. 2023-Jul-08 00:00:00.0000, 2.263217708237529E+08, -9.798627090197794E+07, 6.011456341528147E+04,
2460140.500000000, A.D. 2023-Jul-15 00:00:00.0000, 2.334348562806978E+08, -8.421542240560557E+07, -2.130966918787166E+06,
2460147.500000000, A.D. 2023-Jul-22 00:00:00.0000, 2.398069224270306E+08, -7.017700354458514E+07, -4.315307208928905E+06,
$$EOE